NORAD_CAT_ID,OBJECT_NAME,OBJECT_TYPE,EPOCH,MEAN_MOTION,ECCENTRICITY,INCLINATION,RA_OF_ASC_NODE,ARG_OF_PERICENTER,MEAN_ANOMALY,BSTAR,MEAN_MOTION_DOT,MEAN_MOTION_DDOT,TLE_LINE0,TLE_LINE1,TLE_LINE2,SEMIMAJOR_AXIS,PERIOD,APOGEE,PERIGEE,DECAYED
52456.0,STARLINK-3896,PAYLOAD,2022-07-12 22:00:00,15.08892965,0.0001706999999999,53.2149,305.6227,50.114,35.9214,-0.0037497,-0.00059558,0.0,0 STARLINK-3896,1 52456U 22049F   22193.91667824 -.00059558  00000-0 -37497-2 0  9995,2 52456  53.2149 305.6227 0001707  50.1140  35.9214 15.08892965  1300,6917.719,95.434,540.764,538.403,0.0
52456.0,STARLINK-3896,PAYLOAD,2022-07-13 14:00:01,15.08846948,0.0001757,53.2151,302.6303,51.7468,57.5343,-0.0017734,-0.00028407,0.0,0 STARLINK-3896,1 52456U 22049F   22194.58334491 -.00028407  00000-0 -17734-2 0  9991,2 52456  53.2151 302.6303 0001757  51.7468  57.5343 15.08846948  1303,6917.859,95.437,540.94,538.509,0.0
52456.0,STARLINK-3896,PAYLOAD,2022-07-13 22:00:00,15.08838952,0.0001688,53.2151,301.1335,48.929,71.9381,-0.0024489,-0.00039051,0.0,0 STARLINK-3896,1 52456U 22049F   22194.91667824 -.00039051  00000-0 -24489-2 0  9999,2 52456  53.2151 301.1335 0001688  48.9290  71.9381 15.08838952 10764,6917.884,95.438,540.9159999999998,538.581,0.0
52456.0,STARLINK-3896,PAYLOAD,2022-07-14 14:00:01,15.08825343,0.0001759,53.2153,298.1414,49.6751,94.3367,-4.0415e-05,-9.31e-06,0.0,0 STARLINK-3896,1 52456U 22049F   22195.58334491 -.00000931  00000-0 -40415-4 0  9998,2 52456  53.2153 298.1414 0001759  49.6751  94.3367 15.08825343 10862,6917.925,95.438,541.007,538.573,0.0
52456.0,STARLINK-3896,PAYLOAD,2022-07-14 22:00:00,15.08852777,0.0001719,53.2152,296.6445,48.3007,107.2894,-0.0012843,-0.00020677,0.0,0 STARLINK-3896,1 52456U 22049F   22195.91667824 -.00020677  00000-0 -12843-2 0  9995,2 52456  53.2152 296.6445 0001719  48.3007 107.2894 15.08852777  1303,6917.840999999999,95.437,540.896,538.5169999999998,0.0
52456.0,STARLINK-3896,PAYLOAD,2022-07-15 06:00:00,15.08839143,0.0001626999999999,53.2155,295.147,54.4045,112.786,0.0021531,0.00034144,0.0,0 STARLINK-3896,1 52456U 22049F   22196.25001157  .00034144  00000-0  21531-2 0  9990,2 52456  53.2155 295.1470 0001627  54.4045 112.7860 15.08839143 10975,6917.8830000000025,95.438,540.874,538.622,0.0
52456.0,STARLINK-3896,PAYLOAD,2022-07-15 14:00:01,15.08860408,0.0001761,53.2153,293.6524,47.2874,131.5133,-0.0025076,-0.00039998,0.0,0 STARLINK-3896,1 52456U 22049F   22196.58334491 -.00039998  00000-0 -25076-2 0  9998,2 52456  53.2153 293.6524 0001761  47.2874 131.5133 15.08860408  1302,6917.818,95.436,540.901,538.465,0.0
52456.0,STARLINK-3896,PAYLOAD,2022-07-15 22:00:00,15.08872683,0.0001689,53.2152,292.1552,46.5824,143.8248,-0.0039179,-0.0006216,0.0,0 STARLINK-3896,1 52456U 22049F   22196.91667824 -.00062160  00000-0 -39179-2 0  9990,2 52456  53.2152 292.1552 0001689  46.5824 143.8248 15.08872683 11078,6917.78,95.435,540.814,538.477,0.0
52456.0,STARLINK-3896,PAYLOAD,2022-07-16 14:00:01,15.08841917,0.0001792,53.2152,289.1633,47.1229,166.4771,-0.0010878,-0.0001756,0.0,0 STARLINK-3896,1 52456U 22049F   22197.58334491 -.00017560  00000-0 -10878-2 0  9994,2 52456  53.2152 289.1633 0001792  47.1229 166.4771 15.08841917 11174,6917.875,95.437,540.979,538.5,0.0
52456.0,STARLINK-3896,PAYLOAD,2022-07-16 22:00:00,15.08838326,0.0001648,53.215,287.6659,46.2021,178.9885,-0.0015947,-0.00025577,0.0,0 STARLINK-3896,1 52456U 22049F   22197.91667824 -.00025577  00000-0 -15947-2 0  9999,2 52456  53.2150 287.6659 0001648  46.2021 178.9885 15.08838326  1301,6917.886,95.438,540.891,538.61,0.0
52456.0,STARLINK-3896,PAYLOAD,2022-07-17 14:00:01,15.08829756,0.0001684,53.2148,284.6740000000001,43.2165,205.1656,-0.0006412,-0.00010475,0.0,0 STARLINK-3896,1 52456U 22049F   22198.58334491 -.00010475  00000-0 -64120-3 0  9993,2 52456  53.2148 284.6740 0001684  43.2165 205.1656 15.08829756 11321,6917.9119999999975,95.438,540.942,538.612,0.0
52456.0,STARLINK-3896,PAYLOAD,2022-07-17 22:00:00,15.08864502,0.0001643,53.2157,283.1802,43.927,216.0245,-0.006809,-0.00107118,0.0,0 STARLINK-3896,1 52456U 22049F   22198.91667824 -.00107118  00000-0 -68090-2 0  9999,2 52456  53.2157 283.1802 0001643  43.9270 216.0245 15.08864502  1303,6917.805,95.436,540.807,538.534,0.0
52456.0,STARLINK-3896,PAYLOAD,2022-07-18 14:00:01,15.08798692,0.0001720999999999,53.2162,280.1849,45.5689,237.5133,0.00157,0.00024759,0.0,0 STARLINK-3896,1 52456U 22049F   22199.58334491  .00024759  00000-0  15700-2 0  9991,2 52456  53.2162 280.1849 0001721  45.5689 237.5133 15.08798692  1306,6918.007,95.44,541.062,538.681,0.0
52456.0,STARLINK-3896,PAYLOAD,2022-07-18 16:00:00,15.08791085,0.0001708,53.2161,279.8109,44.2436,331.73,0.0030541,0.00048588,0.0,0 STARLINK-3896,1 52456U 22049F   22199.66667824  .00048588  00000-0  30541-2 0  9995,2 52456  53.2161 279.8109 0001708  44.2436 331.7300 15.08791085 11482,6918.03,95.441,541.077,538.7130000000002,0.0
52456.0,STARLINK-3896,PAYLOAD,2022-07-18 22:00:00,15.08825815,0.000159,53.2158,278.6873,47.3637,247.2678,-0.0016656,-0.00026688,0.0,0 STARLINK-3896,1 52456U 22049F   22199.91667824 -.00026688  00000-0 -16656-2 0  9993,2 52456  53.2158 278.6873 0001590  47.3637 247.2678 15.08825815  1307,6917.924,95.438,540.889,538.689,0.0
52456.0,STARLINK-3896,PAYLOAD,2022-07-19 06:00:00,15.08823649,0.0001541999999999,53.2158,277.1905,53.1205,253.0738,0.00042644,6.502e-05,0.0,0 STARLINK-3896,1 52456U 22049F   22200.25001157  .00006502  00000-0  42644-3 0  9992,2 52456  53.2158 277.1905 0001542  53.1205 253.0738 15.08823649 11575,6917.93,95.439,540.862,538.729,0.0
52456.0,STARLINK-3896,PAYLOAD,2022-07-19 14:00:01,15.08816782,0.0001747,53.2157,275.6958,46.0242,271.7675,0.0019763,0.00031285,0.0,0 STARLINK-3896,1 52456U 22049F   22200.58334491  .00031285  00000-0  19763-2 0  9999,2 52456  53.2157 275.6958 0001747  46.0242 271.7675 15.08816782  1301,6917.951,95.439,541.025,538.6080000000002,0.0
52456.0,STARLINK-3896,PAYLOAD,2022-07-19 22:00:00,15.08828933,0.0001672,53.2163,274.2012,47.066,282.3081,0.0019658,0.00031127,0.0,0 STARLINK-3896,1 52456U 22049F   22200.91667824  .00031127  00000-0  19658-2 0  9993,2 52456  53.2163 274.2012 0001672  47.0660 282.3081 15.08828933  1306,6917.9140000000025,95.438,540.936,538.623,0.0
52456.0,STARLINK-3896,PAYLOAD,2022-07-20 06:00:00,15.08868192,0.0001679,53.2156,272.701,53.5992,287.4048,-0.0016984,-0.00027237,0.0,0 STARLINK-3896,1 52456U 22049F   22201.25001157 -.00027237  00000-0 -16984-2 0  9990,2 52456  53.2156 272.7010 0001679  53.5992 287.4048 15.08868192 11723,6917.794,95.436,540.821,538.498,0.0
52456.0,STARLINK-3896,PAYLOAD,2022-07-20 14:00:01,15.08831675,0.0001868,53.2156,271.2063,47.5657,305.0548,0.001906,0.0003017,0.0,0 STARLINK-3896,1 52456U 22049F   22201.58334491  .00030170  00000-0  19060-2 0  9992,2 52456  53.2156 271.2063 0001868  47.5657 305.0548 15.08831675  1307,6917.906,95.438,541.063,538.479,0.0
52456.0,STARLINK-3896,PAYLOAD,2022-07-20 22:00:01,15.08843636,0.0001706999999999,53.2155,269.7082,48.1683,316.1090000000001,-0.0023436999999999,-0.00037399,0.0,0 STARLINK-3896,1 52456U 22049F   22201.91668981 -.00037399  00000-0 -23437-2 0  9998,2 52456  53.2155 269.7082 0001707  48.1683 316.1090 15.08843636  1302,6917.869000000002,95.437,540.915,538.553,0.0
52456.0,STARLINK-3896,PAYLOAD,2022-07-21 08:00:01,15.08843332,0.0001739,53.2157,267.8381,49.1537,59.5289,-0.0014985999999999,-0.00024061,0.0,0 STARLINK-3896,1 52456U 22049F   22202.33334491 -.00024061  00000-0 -14986-2 0  9992,2 52456  53.2157 267.8381 0001739  49.1537  59.5289 15.08843332 11884,6917.87,95.437,540.938,538.5319999999998,0.0
52456.0,STARLINK-3896,PAYLOAD,2022-07-21 14:00:01,15.088105300000002,0.0001867,53.2158,266.7169,44.9619,342.4790000000001,0.0026427,0.00041988,0.0,0 STARLINK-3896,1 52456U 22049F   22202.58335648  .00041988  00000-0  26427-2 0  9992,2 52456  53.2158 266.7169 0001867  44.9619 342.4790 15.08810530  1304,6917.97,95.439,541.127,538.544,0.0
52456.0,STARLINK-3896,PAYLOAD,2022-07-21 22:00:00,15.08838444,0.0001742,53.216,265.2189,47.3514,351.6063,-0.00018894,-3.294e-05,0.0,0 STARLINK-3896,1 52456U 22049F   22202.91667824 -.00003294  00000-0 -18894-3 0  9993,2 52456  53.2160 265.2189 0001742  47.3514 351.6063 15.08838444 11979,6917.885,95.438,540.955,538.545,0.0
52456.0,STARLINK-3896,PAYLOAD,2022-07-22 06:00:00,15.0885786,0.0001771,53.2161,263.7225,50.049,0.4953,-0.00052599,-8.654e-05,0.0,0 STARLINK-3896,1 52456U 22049F   22203.25001157 -.00008654  00000-0 -52599-3 0  9997,2 52456  53.2161 263.7225 0001771  50.0490   0.4953 15.08857860  1306,6917.826,95.436,540.9159999999998,538.466,0.0
52456.0,STARLINK-3896,PAYLOAD,2022-07-22 22:00:00,15.0886767,0.0001771999999999,53.2164,260.7297,46.6167,27.1535,-0.0014805,-0.00023791,0.0,0 STARLINK-3896,1 52456U 22049F   22203.91667824 -.00023791  00000-0 -14805-2 0  9995,2 52456  53.2164 260.7297 0001772  46.6167  27.1535 15.08867670 12122,6917.795999999999,95.436,540.887,538.435,0.0
52456.0,STARLINK-3896,PAYLOAD,2022-07-23 14:00:01,15.08828571,0.0001865999999999,53.2165,257.7384,40.3138,56.7372,0.00035779,5.409e-05,0.0,0 STARLINK-3896,1 52456U 22049F   22204.58335648  .00005409  00000-0  35779-3 0  9993,2 52456  53.2165 257.7384 0001866  40.3138  56.7372 15.08828571  1301,6917.915,95.438,541.071,538.489,0.0
52456.0,STARLINK-3896,PAYLOAD,2022-07-23 22:00:00,15.0881094,0.0001641,53.2166,256.2405,42.4789,66.1009,0.0006861,0.0001064,0.0,0 STARLINK-3896,1 52456U 22049F   22204.91667824  .00010640  00000-0  68610-3 0  9997,2 52456  53.2166 256.2405 0001641  42.4789  66.1009 15.08810940  1309,6917.969,95.439,540.969,538.6990000000002,0.0
52456.0,STARLINK-3896,PAYLOAD,2022-07-24 06:00:00,15.08841862,0.0001681,53.2166,254.7445,44.3976,75.7509,-0.001371,-0.00022042,0.0,0 STARLINK-3896,1 52456U 22049F   22205.25001157 -.00022042  00000-0 -13710-2 0  9997,2 52456  53.2166 254.7445 0001681  44.3976  75.7509 15.08841862 12321,6917.875,95.437,540.903,538.577,0.0
